STARLINK-4734           
1 53790U 22111T   23282.14529730  .00001606  00000+0  11896-3 0  9999
2 53790  53.2169 275.8946 0001535  92.1693 267.9475 15.08841587 59659
STARLINK-4739           
1 53792U 22111V   23282.13792309  .00001435  00000+0  10820-3 0  9990
2 53792  53.2169 275.8490 0001610  90.8937 269.2240 15.08849579 59659
STARLINK-4728           
1 53793U 22111W   23281.27408480  .00001769  00000+0  12923-3 0  9995
2 53793  53.2166 279.6997 0001596  88.1901 271.9274 15.08839158 60320
STARLINK-4730           
1 53794U 22111X   23282.14258995 -.00002975  00000+0 -16901-3 0  9999
2 53794  53.2173 275.8763 0001632  93.0577 267.0602 15.08818945 59659
STARLINK-4742           
1 53795U 22111Y   23282.12687667  .00001083  00000+0  86154-4 0  9995
2 53795  53.2188 275.7842 0001472  78.4900 281.6258 15.08840759 59659
STARLINK-4721           
1 53796U 22111Z   23282.13238491  .00000216  00000+0  31636-4 0  9996
2 53796  53.2167 255.7406 0001528  93.2391 266.8776 15.08847416 60011
STARLINK-4723           
1 53797U 22111AA  23281.71838376  .00001491  00000+0  11178-3 0  9992
2 53797  53.2150 277.4957 0002131  91.2485 268.8751 15.08834392 60383
STARLINK-4712           
1 53798U 22111AB  23281.98702943  .00001538  00000+0  11470-3 0  9999
2 53798  53.2159 276.3284 0002241 102.0291 258.0952 15.08844992 59617
STARLINK-4710           
1 53799U 22111AC  23281.96320069  .00000886  00000+0  73730-4 0  9996
2 53799  53.2182 266.9003 0001642  91.8291 268.2889 15.08838550 59746
STARLINK-4720           
1 53800U 22111AD  23281.68622559  .00000072  00000+0  22614-4 0  9999
2 53800  53.2173 268.0218 0001556  89.8042 270.3128 15.08841810 60515
STARLINK-4715           
1 53801U 22111AE  23281.91667824  .00053591  00000+0  35136-2 0  9995
2 53801  53.2151 266.9243 0001437  98.9616 105.5758 15.07193737  5854
STARLINK-4726           
1 53802U 22111AF  23282.14253899  .00000882  00000+0  73486-4 0  9992
2 53802  53.2194 265.8941 0001305  69.7580 290.3552 15.08839418 59774
STARLINK-4727           
1 53803U 22111AG  23282.09057250  .00008367  00000+0  54285-3 0  9991
2 53803  53.2161 251.3070 0002114  94.3907 265.7326 15.08860553 59979
STARLINK-4729           
1 53804U 22111AH  23282.13474547  .00000734  00000+0  64245-4 0  9997
2 53804  53.2178 260.8456 0001659  85.4080 274.7102 15.08834069 59848
STARLINK-4763           
1 53805U 22111AJ  23281.63522359 -.00001058  00000+0 -48383-4 0  9994
2 53805  53.2154 253.4306 0001382  82.2295 277.8854 15.08833523 60711
STARLINK-4768           
1 53806U 22111AK  23282.13839121  .00002775  00000+0  19234-3 0  9996
2 53806  53.2164 250.8864 0001417 100.1320 259.9832 15.08848546 59986
BLUEWALKER 3            
1 53807U 22111AL  23281.40382633  .00009770  00000+0  43360-3 0  9996
2 53807  53.2146 274.8996 0013185  46.5179 313.6913 15.22146219 59688
STARLINK-4749           
1 53818U 22114A   23281.73769292 -.00000791  00000+0 -23438-4 0  9998
2 53818  53.2223 295.5263 0002335  93.5012 266.6251 15.17553894 59818
STARLINK-4738           
1 53819U 22114B   23281.80865328  .00002908  00000+0  20070-3 0  9992
2 53819  53.2172 307.7178 0001692  90.9963 269.1223 15.08845317 59545
STARLINK-4758           
1 53820U 22114C   23281.81137957  .00002956  00000+0  20374-3 0  9995
2 53820  53.2180 307.7321 0001848  97.0620 263.0582 15.08843533 59546
STARLINK-4752           
1 53821U 22114D   23282.09150626  .00000098  00000+0  24245-4 0  9992
2 53821  53.2166 251.0697 0001426  95.5862 264.5293 15.08837505 59829
STARLINK-4748           
1 53823U 22114F   23281.65172871  .00000102  00000+0  24494-4 0  9993
2 53823  53.2161 263.2147 0001460  94.7158 265.4001 15.08841529 60154
STARLINK-4757           
1 53824U 22114G   23282.06528693  .00001190  00000+0  92844-4 0  9999
2 53824  53.2177 306.4765 0001843  90.6575 269.4628 15.08839978 59041
STARLINK-4751           
1 53825U 22114H   23282.06896883  .00001698  00000+0  12472-3 0  9990
2 53825  53.2167 306.5001 0001288  92.8873 267.2267 15.08839904 59047
STARLINK-4756           
1 53826U 22114J   23281.78558595  .00000177  00000+0  29201-4 0  9994
2 53826  53.2167 307.5792 0001662  92.8147 267.3035 15.08839897 59546
STARLINK-4764           
1 53827U 22114K   23281.79664097  .00000632  00000+0  57808-4 0  9991
2 53827  53.2186 307.6436 0001799  88.4167 271.7031 15.08843708 59549
STARLINK-4760           
1 53828U 22114L   23282.11310455  .00000370  00000+0  41363-4 0  9993
2 53828  53.2174 306.0670 0001648  87.6958 272.4223 15.08833587 59053
STARLINK-4759           
1 53829U 22114M   23281.79295627  .00004945  00000+0  32850-3 0  9992
2 53829  53.2166 307.6226 0002032  92.3841 267.7384 15.08844999 59549
STARLINK-4761           
1 53830U 22114N   23282.03949359  .00008854  00000+0  57360-3 0  9996
2 53830  53.2171 306.3187 0001724  92.3297 267.7892 15.08844158 59047
STARLINK-4649           
1 53831U 22114P   23281.78927065  .00001413  00000+0  10688-3 0  9994
2 53831  53.2172 307.6004 0001700  91.3718 268.7469 15.08841380 59542
STARLINK-4747           
1 53832U 22114Q   23281.76716140  .00000545  00000+0  52347-4 0  9997
2 53832  53.2167 307.4657 0001534  93.9416 266.1751 15.08840771 59546
STARLINK-4771           
1 53833U 22114R   23282.10942071  .00000874  00000+0  73042-4 0  9991
2 53833  53.2184 306.0475 0001709  95.9241 264.1946 15.08836116 59059
STARLINK-4737           
1 53834U 22114S   23282.09099342  .00001893  00000+0  13701-3 0  9991
2 53834  53.2178 305.9257 0001578 100.2912 259.8258 15.08839075 59052
STARLINK-4783           
1 53835U 22114T   23281.77085336  .00011309  00000+0  72754-3 0  9990
2 53835  53.2172 307.4843 0002777  82.7018 277.4290 15.08838670 59544
STARLINK-4778           
1 53836U 22114U   23281.74237538  .00000343  00000+0  39669-4 0  9996
2 53836  53.2167 298.0284 0001534  88.4728 271.6439 15.08842109 59671
STARLINK-4776           
1 53837U 22114V   23281.56475189  .00004104  00000+0  27568-3 0  9996
2 53837  53.2170 308.3316 0001538  93.9167 266.2001 15.08852189 59516
STARLINK-4773           
1 53838U 22114W   23281.73869373  .00001313  00000+0  10056-3 0  9991
2 53838  53.2164 298.0096 0001711  84.3112 275.8075 15.08840329 59674
STARLINK-4784           
1 53839U 22114X   23281.54733241  .00001126  00000+0  88831-4 0  9994
2 53839  53.2177 298.9469 0001460  88.8102 271.3057 15.08848122 59648
STARLINK-4766           
1 53840U 22114Y   23282.05980186  .00003373  00000+0  22992-3 0  9996
2 53840  53.2166 296.4627 0001690  76.4587 283.6593 15.08842865 59180
STARLINK-4750           
1 53841U 22114Z   23281.33756841  .00001362  00000+0  10368-3 0  9996
2 53841  53.2165 299.7738 0001765  86.4857 273.6337 15.08840506 59616
STARLINK-4754           
1 53842U 22114AA  23281.78650920  .00002369  00000+0  16690-3 0  9999
2 53842  53.2168 297.5952 0001659  91.3215 268.7967 15.08843538 59688
STARLINK-4769           
1 53843U 22114AB  23282.06252500  .00007286  00000+0  47531-3 0  9995
2 53843  53.2167 296.4745 0002130  88.8445 271.2791 15.08846442 59183
STARLINK-4745           
1 53844U 22114AC  23281.44793744 -.00000104  00000+0  11591-4 0  9998
2 53844  53.2166 299.0387 0001600  90.8075 269.3100 15.08843100 59637
STARLINK-4753           
1 53845U 22114AD  23281.79019688  .00001523  00000+0  11374-3 0  9998
2 53845  53.2172 297.6385 0001803  89.9477 270.1722 15.08844545 59686
STARLINK-4746           
1 53846U 22114AE  23282.03673186  .00001527  00000+0  11400-3 0  9990
2 53846  53.2165 296.3174 0001720  91.9555 268.1634 15.08839022 59187
STARLINK-4777           
1 53847U 22114AF  23282.04778455  .00003758  00000+0  25403-3 0  9993
2 53847  53.2154 296.3828 0001745  90.7540 269.3652 15.08843549 59182
STARLINK-4780           
1 53848U 22114AG  23281.76440289  .00001927  00000+0  13914-3 0  9993
2 53848  53.2164 297.4618 0001899 102.7932 257.3273 15.08831785 59682
STARLINK-4770           
1 53849U 22114AH  23281.77545421  .00001310  00000+0  10037-3 0  9998
2 53849  53.2161 297.5309 0001591  87.9967 272.1207 15.08843607 59687
STARLINK-4767           
1 53850U 22114AJ  23281.75334678  .00001625  00000+0  12018-3 0  9998
2 53850  53.2180 297.3957 0001821  98.7953 261.3245 15.08840485 59681
STARLINK-4755           
1 53851U 22114AK  23281.76809018  .00002184  00000+0  15530-3 0  9998
2 53851  53.2163 297.4814 0002281  93.1424 266.9829 15.08832736 59688
STARLINK-4797           
1 53852U 22114AL  23281.45024285  .00001969  00000+0  14178-3 0  9997
2 53852  53.2170 294.0654 0001869  90.8409 269.2797 15.08844838 59709
STARLINK-4794           
1 53853U 22114AM  23281.76071694  .00000281  00000+0  35769-4 0  9994
2 53853  53.2178 297.4390 0001907  87.1389 272.9821 15.08840228 59686
STARLINK-4800           
1 53854U 22114AN  23281.74329943  .00002450  00000+0  17193-3 0  9996
2 53854  53.2165 288.0570 0001549  92.1353 267.9817 15.08843852 59818
STARLINK-4703           
1 53855U 22114AP  23282.09655810  .00002148  00000+0  15299-3 0  9990
2 53855  53.2171 295.9796 0001798  95.7377 264.3820 15.08842101 59196
STARLINK-4795           
1 53856U 22114AQ  23282.05976199 -.00002978  00000+0 -16915-3 0  9992
2 53856  53.2179 286.4787 0001575  99.3344 260.7826 15.08829742 59324
STARLINK-4809           
1 53857U 22114AR  23281.74966234 -.00000023  00000+0  16633-4 0  9993
2 53857  53.2172 297.3743 0001637  95.3018 264.8161 15.08838873 59685
STARLINK-4798           
1 53858U 22114AS  23281.73961705  .00001696  00000+0  12461-3 0  9991
2 53858  53.2164 288.0330 0001859  89.0597 271.0608 15.08840733 59813
STARLINK-4790           
1 53859U 22114AT  23281.42445054  .00001360  00000+0  10351-3 0  9996
2 53859  53.2180 293.9078 0001870  91.7948 268.3258 15.08843013 59701
STARLINK-4799           
1 53860U 22114AU  23282.06344747  .00001421  00000+0  10738-3 0  9993
2 53860  53.2173 286.5014 0001667  96.7915 263.3267 15.08839768 59321
